[{"OBJECT_NAME":"OBJECT A","OBJECT_ID":"2024-174A","EPOCH":"2026-03-09T17:44:03.378336","MEAN_MOTION":15.19157836,"ECCENTRICITY":0.00014022,"INCLINATION":97.4523,"RA_OF_ASC_NODE":77.8721,"ARG_OF_PERICENTER":95.7936,"MEAN_ANOMALY":264.3459,"EPHEMERIS_TYPE":0,"CLASSIFICATION_TYPE":"U","NORAD_CAT_ID":61238,"ELEMENT_SET_NO":999,"REV_AT_EPOCH":8058,"BSTAR":0.00024396244,"MEAN_MOTION_DOT":5.06e-5,"MEAN_MOTION_DDOT":0},{"OBJECT_NAME":"SITRO-TD-3","OBJECT_ID":"2025-313Y","EPOCH":"2026-03-09T22:34:33.372192","MEAN_MOTION":15.21559953,"ECCENTRICITY":0.00145757,"INCLINATION":97.4011,"RA_OF_ASC_NODE":145.2018,"ARG_OF_PERICENTER":358.2913,"MEAN_ANOMALY":1.827,"EPHEMERIS_TYPE":0,"CLASSIFICATION_TYPE":"U","NORAD_CAT_ID":67270,"ELEMENT_SET_NO":999,"REV_AT_EPOCH":1085,"BSTAR":0.00053243574,"MEAN_MOTION_DOT":0.00011975,"MEAN_MOTION_DDOT":0}]
